satname,norad_id,inclination_deg,eccentricity,mean_motion_rev_per_day,perigee_km,apogee_km,l1,l2
STARLINK-1008,44714,53.056,0.0001713,15.0639074,546.0536215803859,548.426255719568,1 44714U 19074B   25327.35086600  .00000112  00000+0  26432-4 0  9992,2 44714  53.0560 303.9860 0001713 101.6758 258.4423 15.06390740332720
STARLINK-1011,44717,53.0442,0.0002789,16.02986771,264.299441391091,268.00562609301323,1 44717U 19074E   25327.76945972  .00548529  14922-3  88240-3 0  9991,2 44717  53.0442 270.0243 0002789  91.9264 268.2086 16.02986771333231
STARLINK-1012,44718,53.0554,0.0001409,15.06390997,546.2633654743613,548.214936473707,1 44718U 19074F   25327.26240072 -.00000795  00000+0 -34467-4 0  9997,2 44718  53.0554 304.3883 0001409  82.1669 277.9480 15.06390997332704
STARLINK-1017,44723,53.0525,0.0004716,15.16709248,512.5431251844211,519.0454811895879,1 44723U 19074L   25327.29334184  .00045752  00000+0  23073-2 0  9993,2 44723  53.0525 299.3409 0004716  29.1181 331.0075 15.16709248332783
STARLINK-1019,44724,53.0545,0.0001634,15.52533674,408.2223515039641,410.4404961848768,1 44724U 19074M   25327.71701223  .00137990  00000+0  21805-2 0  9990,2 44724  53.0545 297.3570 0001634  98.0862 262.0332 15.52533674332844
STARLINK-1020,44725,53.0555,0.0001708,15.06393034,546.0500546270077,548.4157609875156,1 44725U 19074N   25327.39693816  .00000680  00000+0  64578-4 0  9994,2 44725  53.0555 323.7860 0001708  92.1315 267.9870 15.06393034332442
STARLINK-1031,44736,53.0498,0.000735,15.53181481,402.4565946958983,412.43139876108944,1 44736U 19074Z   25327.91668980  .00168643  00000+0  25895-2 0  9999,2 44736  53.0498 283.4880 0007350  29.1343 208.2039 15.53181481  5753
STARLINK-1036,44741,53.0558,0.000167,15.06381415,546.1119761505179,548.4250615938217,1 44741U 19074AE  25327.22737816  .00000644  00000+0  62191-4 0  9992,2 44741  53.0558 324.5486 0001670  91.7399 268.3781 15.06381415332425
STARLINK-1039,44744,53.0509,0.0001265,15.14513618,521.5826443742108,523.3284942942519,1 44744U 19074AH  25327.24963058  .00036611  00000+0  19709-2 0  9994,2 44744  53.0509 341.2391 0001265 310.3618  49.7264 15.14513618332191
STARLINK-1042,44747,53.0462,0.0003435,15.44347894,430.9551039213029,435.63455758903274,1 44747U 19074AL  25327.18605066  .00023296  00000+0  50467-3 0  9994,2 44747  53.0462 243.6116 0003435 137.3018 222.8255 15.44347894333586
STARLINK-1043,44748,53.0594,0.0001293,15.30356747,473.8610131660016,475.63316899195434,1 44748U 19074AM  25327.91668980  .01195210  00000+0  36918-1 0  9990,2 44748  53.0594 340.4959 0001293  86.7237 335.1604 15.30356747  5735
STARLINK-1046,44751,53.0562,0.0001482,15.06388518,546.2204069665131,548.2730907096693,1 44751U 19074AQ  25327.28082736 -.00000311  00000+0 -19564-5 0  9993,2 44751  53.0562 344.3054 0001482 100.3153 259.8003 15.06388518332151
STARLINK-1047,44752,53.0708,0.0001183,15.29881705,475.3547416864758,476.9764696829816,1 44752U 19074AR  25327.17142262  .00011533  00000+0  40481-3 0  9999,2 44752  53.0708 282.5877 0001183 223.0333 137.0574 15.29881705333029
STARLINK-1048,44753,53.0542,0.0001315,15.06394784,546.316858835592,548.1382297107348,1 44753U 19074AS  25327.24027493 -.00000600  00000+0 -21411-4 0  9994,2 44753  53.0542 304.4850 0001315 100.4093 259.7045 15.06394784332709
STARLINK-1053,44758,53.0397,0.0005325,15.64037282,372.4123597687085,379.60552519745397,1 44758U 19074AX  25327.18955490  .00069810  00000+0  72395-3 0  9991,2 44758  53.0397 253.9838 0005325 103.6069 256.5538 15.64037282333422
STARLINK-1060,44765,53.0516,0.000787,15.69353124,355.4446838085032,366.0516890919771,1 44765U 19074BE  25327.91668980  .00202846  00000+0  16606-2 0  9995,2 44765  53.0516 295.9909 0007870  67.2048 230.5095 15.69353124  5840
STARLINK-1063,44768,53.0547,0.0001333,15.06406431,546.2687015842039,548.1149942550592,1 44768U 19074BH  25327.60151865  .00009733  00000+0  67125-3 0  9996,2 44768  53.0547 342.8677 0001333  75.7425 284.3712 15.06406431332210
STARLINK-1067,44771,53.0551,0.0001672,15.06390018,546.0842281054129,548.4000748936742,1 44771U 19074BL  25327.45776778  .00004843  00000+0  34387-3 0  9990,2 44771  53.0551 343.5110 0001672  96.9041 263.2138 15.06390018332181
STARLINK-1068,44772,53.0554,0.0001483,15.06397953,546.1908015840181,548.244861827101,1 44772U 19074BM  25327.31583690 -.00000017  00000+0  17776-4 0  9999,2 44772  53.0554 324.1483 0001483  86.7124 273.4035 15.06397953332434
STARLINK-1112,44925,53.0488,0.0003517,15.58875447,388.5298544212228,393.29120245272406,1 44925U 20001M   25327.91668980  .00108099  00000+0  13584-2 0  9992,2 44925  53.0488  50.9034 0003517 304.0225 149.8546 15.58875447  5878
STARLINK-1114,44927,53.0547,0.0001222,15.06394698,546.3815282727919,548.0740874318317,1 44927U 20001P   25327.68627840  .00001827  00000+0  14150-3 0  9990,2 44927  53.0547 102.4868 0001222  95.3743 264.7386 15.06394698323879
STARLINK-1123,44930,53.0548,0.0001287,15.06398485,546.3249082419743,548.1074941559636,1 44930U 20001S   25327.70102316  .00000678  00000+0  64422-4 0  9994,2 44930  53.0548 102.4201 0001287  89.5078 270.6058 15.06398485323872
STARLINK-1144,44933,53.0422,0.0003228,15.67173191,364.8185884660197,369.1732462774744,1 44933U 20001V   25327.91668980  .00137668  00000+0  12449-2 0  9994,2 44933  53.0422  26.6435 0003228 165.3385 199.6792 15.67173191  5945
STARLINK-1094,44941,53.0549,0.0001258,15.06394777,546.3563548649099,548.0987765896471,1 44941U 20001AD  25327.64757530  .00000851  00000+0  75992-4 0  9990,2 44941  53.0549  82.6609 0001258  83.4287 276.6846 15.06394777324141
STARLINK-1096,44942,52.9755,0.0004689,16.18273567,221.14761806540082,227.33933047417122,1 44942U 20001AE  25327.91280634  .01333018  14365-2  78824-3 0  9990,2 44942  52.9755 183.9360 0004689 216.1519 143.9201 16.18273567327761
STARLINK-1122,44949,53.0556,0.0001247,15.06393963,546.3664672631339,548.0936538080305,1 44949U 20001AM  25327.66968581 -.00000879  00000+0 -40101-4 0  9996,2 44949  53.0556  82.5549 0001247 108.3382 251.7742 15.06393963324145
STARLINK-1080,44961,53.0547,0.0001245,15.06389883,546.3803555038257,548.1047750155758,1 44961U 20001AZ  25327.60148566 -.00005616  00000+0 -35850-3 0  9995,2 44961  53.0547  62.8664 0001245  87.6774 272.4357 15.06389883324429
STARLINK-1090,44968,53.0555,0.0001476,15.06396313,546.2006749702468,548.2450412003545,1 44968U 20001BG  25327.53883362 -.00001196  00000+0 -61408-4 0  9992,2 44968  53.0555  63.1469 0001476 111.3308 248.7838 15.06396313324411
STARLINK-1107,44972,53.0038,0.0008092,15.82059327,319.19391059881855,330.04164893439156,1 44972U 20001BL  25327.91668980  .00438211  00000+0  19975-2 0  9996,2 44972  53.0038 324.3830 0008092  55.4769 344.5293 15.82059327  5978
STARLINK-1132,45044,53.0546,0.000117,15.06395032,546.41651662185,548.0370517473484,1 45044U 20006A   25327.43194907  .00000540  00000+0  55158-4 0  9997,2 45044  53.0546  23.6294 0001170  74.2809 285.8309 15.06395032320720
STARLINK-1131,45047,53.0551,0.0001369,15.0639158,546.2892803953264,548.1854478962296,1 45047U 20006D   25327.54074581 -.00002472  00000+0 -14713-3 0  9996,2 45047  53.0551  43.6802 0001369  81.6925 278.4219 15.06391580320459
STARLINK-1134,45048,53.0382,0.0006429,15.301698,470.89916464098224,479.71132067659164,1 45048U 20006E   25327.42722958  .00050298  00000+0  16995-2 0  9992,2 45048  53.0382  18.3205 0006429 233.7431 126.2974 15.30169800320804
STARLINK-1156,45054,53.0566,0.0001333,15.06385204,546.3337509107805,548.1800609260981,1 45054U 20006L   25327.44485316  .00000271  00000+0  37079-4 0  9999,2 45054  53.0566  43.5713 0001333  89.6115 270.5027 15.06385204320448
STARLINK-1159,45057,53.055,0.0003357,15.5328349,404.8690867406158,409.42472635547165,1 45057U 20006P   25327.66950986  .00090790  00000+0  14071-2 0  9996,2 45057  53.0550  35.6304 0003357   9.9133 350.1942 15.53283490320587
STARLINK-1166,45060,53.0547,0.0001343,15.06393399,546.3017120980558,548.1618661548155,1 45060U 20006S   25327.53698818 -.00001651  00000+0 -91991-4 0  9997,2 45060  53.0547  43.1553 0001343 122.6513 237.4605 15.06393399320463
STARLINK-1169,45061,53.0536,0.0001314,15.06393305,546.3220837282697,548.142070721763,1 45061U 20006T   25327.47801646 -.00001490  00000+0 -81196-4 0  9993,2 45061  53.0536  43.4202 0001314  85.5398 274.5742 15.06393305320452
STARLINK-1171,45062,53.0542,0.0007125,15.36533718,451.49913534600546,461.238305997962,1 45062U 20006U   25327.47612751  .00055839  00000+0  15417-2 0  9996,2 45062  53.0542  36.5505 0007125 353.9290   6.1625 15.36533718320555
STARLINK-1133,45064,53.056,0.0001528,15.06388123,546.1897606500379,548.3061582936525,1 45064U 20006W   25327.47617654 -.00003181  00000+0 -19482-3 0  9997,2 45064  53.0560  23.4284 0001528  89.0099 271.1065 15.06388123320738
STARLINK-1167,45071,53.0549,0.0001256,15.0639017,546.3718580734139,548.1115131992465,1 45071U 20006AD  25327.50197698 -.00000729  00000+0 -30087-4 0  9990,2 45071  53.0549  23.3157 0001256  83.5565 276.5566 15.06390170320736
STARLINK-1168,45072,53.0565,0.0001342,15.06408707,546.2554941705803,548.1142505611224,1 45072U 20006AE  25327.43932139  .00004021  00000+0  28863-3 0  9995,2 45072  53.0565  23.5862 0001342 131.9459 228.1645 15.06408707320722
STARLINK-1172,45074,53.0562,0.0001448,15.06397949,546.2150525836059,548.2206353464171,1 45074U 20006AG  25327.31767669 -.00001730  00000+0 -97303-4 0  9990,2 45074  53.0562  24.1472 0001448 104.5204 255.5946 15.06397949320707
STARLINK-1153,45080,53.055,0.0001465,15.06392763,546.219171576583,548.248305202932,1 45080U 20006AN  25327.42824370 -.00009621  00000+0 -62795-3 0  9995,2 45080  53.0550  23.6426 0001465  72.5495 287.5654 15.06392763320721
STARLINK-1151,45081,53.0556,0.0001474,15.06384114,546.2394431139946,548.2810502223119,1 45081U 20006AP  25327.47987407 -.00003828  00000+0 -23833-3 0  9995,2 45081  53.0556  23.4899 0001474 122.4080 237.7052 15.06384114320736
